
# Worst residual: 3.71 km
# MJD 59609.000000 (2022 Jan 30  0:00)
1967-040A = NORAD 02765 = Vela 4A
1 02765U 67040A   22030.49919926  .00000000  00000-0  00000-0 0 14528
2 02765 032.2816 038.5875 4482104 220.9184 185.3953 00.21498399    08

# Worst residual: 15.71 km
# MJD 59610.000000 (2022 Jan 31  0:00)
1967-040A = NORAD 02765 = Vela 4A
1 02765U 67040A   22031.49919926  .00000000  00000-0  00000-0 0 14529
2 02765 032.2887 038.5811 4480927 221.0895 262.4486 00.21518399    09

# Worst residual: 13.50 km
# MJD 59611.000000 (2022 Feb  1  0:00)
1967-040A = NORAD 02765 = Vela 4A
1 02765U 67040A   22032.49919926  .00000000  00000-0  00000-0 0 14520
2 02765 032.2985 038.5600 4467610 221.2414 339.6481 00.21571901    07

# Worst residual: 5.14 km
# MJD 59612.000000 (2022 Feb  2  0:00)
1967-040A = NORAD 02765 = Vela 4A
1 02765U 67040A   22033.49919926  .00000000  00000-0  00000-0 0 14521
2 02765 032.3127 038.5711 4485081 221.2932 056.9416 00.21461027    00

# Worst residual: 14.03 km
# MJD 59613.000000 (2022 Feb  3  0:00)
1967-040A = NORAD 02765 = Vela 4A
1 02765U 67040A   22034.49919926  .00000000  00000-0  00000-0 0 14522
2 02765 032.3234 038.5644 4482395 221.1146 134.6140 00.21516539    02

# Worst residual: 9.16 km
# MJD 59614.000000 (2022 Feb  4  0:00)
1967-040A = NORAD 02765 = Vela 4A
1 02765U 67040A   22035.49919926  .00000000  00000-0  00000-0 0 14523
2 02765 032.3239 038.5475 4477181 220.9959 212.3802 00.21512273    05

# Worst residual: 5.50 km
# MJD 59615.000000 (2022 Feb  5  0:00)
1967-040A = NORAD 02765 = Vela 4A
1 02765U 67040A   22036.49919926  .00000000  00000-0  00000-0 0 14524
2 02765 032.3278 038.5240 4473697 220.8966 289.9283 00.21477860    08

# Worst residual: 9.38 km
# MJD 59616.000000 (2022 Feb  6  0:00)
1967-040A = NORAD 02765 = Vela 4A
1 02765U 67040A   22037.49919926  .00000000  00000-0  00000-0 0 14525
2 02765 032.3274 038.5223 4474042 221.0240 007.1702 00.21497120    05

# Worst residual: 5.55 km
# MJD 59617.000000 (2022 Feb  7  0:00)
1967-040A = NORAD 02765 = Vela 4A
1 02765U 67040A   22038.49919926  .00000000  00000-0  00000-0 0 14526
2 02765 032.3417 038.5021 4471496 221.1790 084.4005 00.21480616    07

# Worst residual: 13.48 km
# MJD 59618.000000 (2022 Feb  8  0:00)
1967-040A = NORAD 02765 = Vela 4A
1 02765U 67040A   22039.49919926  .00000000  00000-0  00000-0 0 14527
2 02765 032.3936 038.5175 4481155 221.2674 161.4143 00.21478979    06

# Worst residual: 6.79 km
# MJD 59619.000000 (2022 Feb  9  0:00)
1967-040A = NORAD 02765 = Vela 4A
1 02765U 67040A   22040.49919926  .00000000  00000-0  00000-0 0 14529
2 02765 032.4220 038.5529 4497661 221.3251 238.6511 00.21516738    09

# Worst residual: 27.88 km
# MJD 59620.000000 (2022 Feb 10  0:00)
1967-040A = NORAD 02765 = Vela 4A
1 02765U 67040A   22041.49919926  .00000000  00000-0  00000-0 0 14520
2 02765 032.4283 038.5581 4510729 221.2492 316.2934 00.21479527    09

# Worst residual: 33.28 km
# MJD 59621.000000 (2022 Feb 11  0:00)
1967-040A = NORAD 02765 = Vela 4A
1 02765U 67040A   22042.49919926  .00000000  00000-0  00000-0 0 14521
2 02765 032.4344 038.5574 4525497 221.5806 033.3882 00.21409861    02

# Worst residual: 17.82 km
# MJD 59622.000000 (2022 Feb 12  0:00)
1967-040A = NORAD 02765 = Vela 4A
1 02765U 67040A   22043.49919926  .00000000  00000-0  00000-0 0 14522
2 02765 032.4372 038.5496 4500313 221.4564 111.1181 00.21507300    00

# Worst residual: 9.75 km
# MJD 59623.000000 (2022 Feb 13  0:00)
1967-040A = NORAD 02765 = Vela 4A
1 02765U 67040A   22044.49919926  .00000000  00000-0  00000-0 0 14523
2 02765 032.4358 038.5335 4487667 221.4015 188.7449 00.21499068    01

# Worst residual: 17.81 km
# MJD 59624.000000 (2022 Feb 14  0:00)
1967-040A = NORAD 02765 = Vela 4A
1 02765U 67040A   22045.49919926  .00000000  00000-0  00000-0 0 14524
2 02765 032.4286 038.4772 4469456 221.5558 265.7290 00.21483512    01

# Worst residual: 8.50 km
# MJD 59625.000000 (2022 Feb 15  0:00)
1967-040A = NORAD 02765 = Vela 4A
1 02765U 67040A   22046.49919926  .00000000  00000-0  00000-0 0 14525
2 02765 032.4408 038.4371 4458917 221.7729 342.8185 00.21542761    06

# Worst residual: 10.96 km
# MJD 59626.000000 (2022 Feb 16  0:00)
1967-040A = NORAD 02765 = Vela 4A
1 02765U 67040A   22047.49919926  .00000000  00000-0  00000-0 0 14526
2 02765 032.4507 038.4563 4471425 221.9225 060.0074 00.21446333    05

# Worst residual: 14.41 km
# MJD 59627.000000 (2022 Feb 17  0:00)
1967-040A = NORAD 02765 = Vela 4A
1 02765U 67040A   22048.49919926  .00000000  00000-0  00000-0 0 14527
2 02765 032.4583 038.4519 4469131 221.7693 137.5792 00.21495853    06

# Worst residual: 10.83 km
# MJD 59628.000000 (2022 Feb 18  0:00)
1967-040A = NORAD 02765 = Vela 4A
1 02765U 67040A   22049.49919926  .00000000  00000-0  00000-0 0 14528
2 02765 032.4715 038.4539 4475857 221.6253 215.3241 00.21516437    04

# Worst residual: 3.05 km
# MJD 59629.000000 (2022 Feb 19  0:00)
1967-040A = NORAD 02765 = Vela 4A
1 02765U 67040A   22050.49919926  .00000000  00000-0  00000-0 0 14520
2 02765 032.4785 038.4422 4477712 221.5529 292.8956 00.21495754    00

# Worst residual: 9.23 km
# MJD 59630.000000 (2022 Feb 20  0:00)
1967-040A = NORAD 02765 = Vela 4A
1 02765U 67040A   22051.49919926  .00000000  00000-0  00000-0 0 14521
2 02765 032.4816 038.4306 4466572 221.6184 010.2068 00.21550569    08

# Worst residual: 8.57 km
# MJD 59631.000000 (2022 Feb 21  0:00)
1967-040A = NORAD 02765 = Vela 4A
1 02765U 67040A   22052.49919926  .00000000  00000-0  00000-0 0 14522
2 02765 032.4899 038.4175 4475002 221.6728 087.5438 00.21518884    07

# Worst residual: 2.37 km
# MJD 59632.000000 (2022 Feb 22  0:00)
1967-040A = NORAD 02765 = Vela 4A
1 02765U 67040A   22053.49919926  .00000000  00000-0  00000-0 0 14523
2 02765 032.4941 038.4096 4477087 221.7726 164.7608 00.21506894    06

# Worst residual: 3.46 km
# MJD 59633.000000 (2022 Feb 23  0:00)
1967-040A = NORAD 02765 = Vela 4A
1 02765U 67040A   22054.49919926  .00000000  00000-0  00000-0 0 14524
2 02765 032.4980 038.3967 4475557 221.8016 242.1216 00.21502252    08

# Worst residual: 23.80 km
# MJD 59634.000000 (2022 Feb 24  0:00)
1967-040A = NORAD 02765 = Vela 4A
1 02765U 67040A   22055.49919926  .00000000  00000-0  00000-0 0 14525
2 02765 032.5032 038.3998 4484604 221.7574 319.6252 00.21471587    08

# Worst residual: 29.36 km
# MJD 59635.000000 (2022 Feb 25  0:00)
1967-040A = NORAD 02765 = Vela 4A
1 02765U 67040A   22056.49919926  .00000000  00000-0  00000-0 0 14526
2 02765 032.5098 038.3953 4493894 222.0467 036.7225 00.21424957    03

# Worst residual: 11.81 km
# MJD 59636.000000 (2022 Feb 26  0:00)
1967-040A = NORAD 02765 = Vela 4A
1 02765U 67040A   22057.49919926  .00000000  00000-0  00000-0 0 14527
2 02765 032.5121 038.3906 4474231 221.9927 114.2777 00.21485137    02
